      2.10          N: GNSS NAV DATA                        RINEX VERSION / TYPE
fic2rin                                 05/06/2023 00:17:58 PGM / RUN BY / DATE
                                                            END OF HEADER
19 23  5  5 12  0  0.0  .312777236104D-03  .511590769747D-11  .000000000000D+00
     .200000000000D+02 -.460000000000D+02  .464019328268D-08  .232007287623D+01
    -.224262475967D-05  .936029048171D-02  .288709998131D-06  .515361768723D+04
     .475200000000D+06  .121071934700D-06  .180990211353D+01  .931322574615D-07
     .973260059822D+00  .380375000000D+03  .228484912093D+01 -.840677874751D-08
    -.383944564261D-09  .100000000000D+01  .226000000000D+04  .000000000000D+00
     .240000000000D+01  .000000000000D+00 -.153668224812D-07  .200000000000D+02
     .468000000000D+06  .400000000000D+01
15 23  5  5 12  0  0.0  .367602333426D-04  .341060513165D-11  .000000000000D+00
     .930000000000D+02  .768750000000D+01  .578238371663D-08 -.764531012140D+00
     .754371285439D-06  .148499113275D-01  .435113906860D-05  .515370332909D+04
     .475200000000D+06 -.894069671631D-07 -.157828730269D+01  .240281224251D-06
     .931791727517D+00  .282468750000D+03  .119380122888D+01 -.889537052789D-08
     .203222750758D-09  .100000000000D+01  .226000000000D+04  .000000000000D+00
     .240000000000D+01  .000000000000D+00 -.107102096081D-07  .930000000000D+02
     .468000000000D+06  .400000000000D+01
21 23  5  5 12  0  0.0  .153972767293D-03 -.113686837722D-12  .000000000000D+00
     .530000000000D+02 -.114750000000D+03  .442625579989D-08  .141719953399D+00
    -.639446079731D-05  .246788198128D-01  .900961458683D-05  .515362541962D+04
     .475200000000D+06  .117346644402D-06  .266503885304D+01 -.365078449249D-06
     .961867008890D+00  .213281250000D+03 -.766364882356D+00 -.841606484860D-08
    -.390373403476D-09  .100000000000D+01  .226000000000D+04  .000000000000D+00
     .240000000000D+01  .000000000000D+00 -.102445483208D-07  .530000000000D+02
     .468000000000D+06  .400000000000D+01
20 23  5  5 12  0  0.0  .435263849795D-03 -.204636307899D-11  .000000000000D+00
     .490000000000D+02 -.100000000000D+01  .450661629009D-08 -.120272606344D+01
    -.521540641785D-07  .420627370477D-02  .114385038614D-04  .515381246567D+04
     .475200000000D+06  .987201929092D-07 -.265331810553D+01 -.968575477600D-07
     .948400928431D+00  .152500000000D+03 -.288029235005D+01 -.792104422900D-08
     .654670126781D-09  .100000000000D+01  .226000000000D+04  .000000000000D+00
     .240000000000D+01  .000000000000D+00 -.838190317154D-08  .490000000000D+02
     .468000000000D+06  .400000000000D+01
17 23  5  5 12  0  0.0  .713611487299D-03  .159161572810D-11  .000000000000D+00
     .390000000000D+02 -.365937500000D+02  .465340811884D-08  .140735296887D+00
    -.187382102013D-05  .135016989661D-01  .112690031528D-05  .515375391960D+04
     .475200000000D+06 -.208616256714D-06  .176531769842D+01 -.856816768646D-07
     .974206800424D+00  .368500000000D+03 -.140934713687D+01 -.871893460719D-08
    -.283226083217D-09  .100000000000D+01  .226000000000D+04  .000000000000D+00
     .240000000000D+01  .000000000000D+00 -.111758708954D-07  .390000000000D+02
     .468000000000D+06  .400000000000D+01
14 23  5  5 12  0  0.0  .466597266495D-04  .125055521494D-10  .000000000000D+00
     .130000000000D+03  .150031250000D+03  .477198448659D-08  .291090123518D+01
     .775046646595D-05  .305214466061D-02  .749342143536D-05  .515368495560D+04
     .475200000000D+06 -.391155481339D-07  .687395552098D+00 -.298023223877D-07
     .949282714007D+00  .230406250000D+03 -.304129687285D+01 -.823320008869D-08
     .309655755548D-09  .100000000000D+01  .226000000000D+04  .000000000000D+00
     .240000000000D+01  .000000000000D+00 -.791624188423D-08  .130000000000D+03
     .468000000000D+06  .400000000000D+01
11 23  5  5 12  0  0.0 -.185875687748D-03 -.134150468512D-10  .000000000000D+00
     .218000000000D+03 -.133937500000D+03  .407516974718D-08 -.409058565423D+00
    -.702403485775D-05  .786880380474D-03  .103879719973D-04  .515374662971D+04
     .475200000000D+06  .745058059692D-07  .280151091845D+01  .242143869400D-07
     .965519319927D+00  .184000000000D+03 -.283459609818D+01 -.790604360416D-08
    -.274654297597D-09  .100000000000D+01  .226000000000D+04  .000000000000D+00
     .240000000000D+01  .000000000000D+00 -.884756445885D-08  .986000000000D+03
     .468000000000D+06  .400000000000D+01
28 23  5  5 12  0  0.0  .744042918086D-04  .432009983342D-11  .000000000000D+00
     .210000000000D+02 -.881250000000D+01  .451697386438D-08  .208634396298D+01
    -.473111867905D-06  .753701082431D-03  .111758708954D-04  .515367542648D+04
     .475200000000D+06 -.260770320892D-07 -.426037483771D+00 -.372529029846D-08
     .961783100298D+00  .167156250000D+03  .171316946580D+01 -.785104131310D-08
    -.490734726785D-09  .100000000000D+01  .226000000000D+04  .000000000000D+00
     .240000000000D+01  .000000000000D+00 -.977888703346D-08  .277000000000D+03
     .468000000000D+06  .400000000000D+01
26 23  5  5 12  0  0.0  .241152476519D-03 -.454747350886D-12  .000000000000D+00
     .189000000000D+03  .123875000000D+03  .509628370924D-08  .201259648955D+01
     .647827982903D-05  .789715652354D-02  .844709575176D-05  .515369141006D+04
     .475200000000D+06 -.262632966042D-06  .588403202109D+00  .707805156708D-07
     .934464312075D+00  .204906250000D+03  .463570184622D+00 -.834106172442D-08
     .205008539429D-09  .100000000000D+01  .226000000000D+04  .000000000000D+00
     .240000000000D+01  .000000000000D+00  .698491930962D-08  .189000000000D+03
     .468000000000D+06  .400000000000D+01
23 23  5  5 12  0  0.0  .217878259718D-04  .295585778076D-11  .000000000000D+00
     .150000000000D+02  .182500000000D+02  .396837958465D-08 -.290116641505D+01
     .113248825073D-05  .312474416569D-02  .105574727058D-04  .515365552139D+04
     .475200000000D+06  .372529029846D-08 -.251479930655D+01 -.484287738800D-07
     .973653551139D+00  .183375000000D+03 -.308857622298D+01 -.763388941071D-08
     .712172521987D-09  .100000000000D+01  .226000000000D+04  .000000000000D+00
     .240000000000D+01  .000000000000D+00 -.838190317154D-08  .783000000000D+03
     .468000000000D+06  .400000000000D+01
18 23  5  5 12  0  0.0 -.253393314779D-03 -.160298441187D-10  .000000000000D+00
     .202000000000D+03 -.121562500000D+03  .383480259206D-08 -.184508659972D+01
    -.636279582977D-05  .313866778743D-02  .971928238869D-05  .515367923927D+04
     .475200000000D+06 -.912696123123D-07  .276934519736D+01  .130385160446D-07
     .973982984198D+00  .200437500000D+03  .313155394442D+01 -.768139138936D-08
    -.176435920693D-09  .100000000000D+01  .226000000000D+04  .000000000000D+00
     .240000000000D+01  .000000000000D+00 -.838190317154D-08  .458000000000D+03
     .468000000000D+06  .400000000000D+01
22 23  5  5 12  0  0.0  .476089771837D-03  .659383658785D-11  .000000000000D+00
     .640000000000D+02 -.153125000000D+02  .506413951317D-08 -.892986554189D-02
    -.931322574615D-06  .143101719441D-01  .497698783875D-05  .515361547852D+04
     .475200000000D+06 -.188127160072D-06 -.135535908143D+01  .894069671631D-07
     .962091995451D+00  .287843750000D+03 -.180710126178D+01 -.854642742158D-08
    -.907180644858D-10  .100000000000D+01  .226000000000D+04  .000000000000D+00
     .340000000000D+01  .630000000000D+02 -.791624188423D-08  .640000000000D+02
     .468000000000D+06  .400000000000D+01
1  23  5  5 14  0  0.0  .187676865608D-03 -.295585778076D-11  .000000000000D+00
     .240000000000D+02 -.111781250000D+03  .366693845699D-08 -.956287843101D+00
    -.584684312344D-05  .128131534439D-01  .965036451817D-05  .515364791679D+04
     .482400000000D+06  .856816768646D-07  .276798716904D+01  .290572643280D-06
     .990101911525D+00  .207031250000D+03  .956350188281D+00 -.775282293619D-08
    -.363943731146D-09  .100000000000D+01  .226000000000D+04  .000000000000D+00
     .240000000000D+01  .000000000000D+00  .465661287308D-08  .240000000000D+02
     .475200000000D+06  .400000000000D+01
3  23  5  5 14  0  0.0 -.311826821417D-03  .104591890704D-10  .000000000000D+00
     .320000000000D+02  .219687500000D+02  .389444793367D-08 -.210673805480D+01
     .112876296043D-05  .473792175762D-02  .103265047073D-04  .515367391968D+04
     .482400000000D+06  .000000000000D+00 -.248511705713D+01 -.130385160446D-06
     .978770354354D+00  .190593750000D+03  .101333399713D+01 -.753995692661D-08
     .581452791271D-09  .100000000000D+01  .226000000000D+04  .000000000000D+00
     .240000000000D+01  .000000000000D+00  .186264514923D-08  .320000000000D+02
     .475200000000D+06  .400000000000D+01
2  23  5  5 14  0  0.0 -.599272549152D-03  .386535248253D-11  .000000000000D+00
     .940000000000D+02 -.137531250000D+03  .401052419729D-08  .305577070930D+01
    -.699609518051D-05  .173521634424D-01  .826269388199D-05  .515952692032D+04
     .482400000000D+06  .195577740669D-06  .266970172448D+01  .102445483208D-06
     .967549262128D+00  .219000000000D+03 -.129075455633D+01 -.753459956060D-08
    -.387516141603D-09  .100000000000D+01  .226000000000D+04  .000000000000D+00
     .240000000000D+01  .000000000000D+00 -.176951289177D-07  .940000000000D+02
     .475200000000D+06  .400000000000D+01
4  23  5  5 14  0  0.0  .337450765073D-04  .954969436862D-11  .000000000000D+00
     .102000000000D+03 -.104375000000D+02  .489377527395D-08  .760522929667D+00
    -.512227416039D-06  .236703164410D-02  .452250242233D-05  .515366713905D+04
     .482400000000D+06  .130385160446D-07 -.140394927930D+01  .558793544769D-07
     .962203171373D+00  .293781250000D+03 -.297814071565D+01 -.825212944860D-08
    -.392873507616D-10  .100000000000D+01  .226000000000D+04  .000000000000D+00
     .240000000000D+01  .000000000000D+00 -.465661287308D-08  .614000000000D+03
     .475200000000D+06  .400000000000D+01
